start=new Date('2022-12-06T00:00:00.000Z').valueOf();
sats=[{"PERIOD":"95.438","MEAN_MOTION_DDOT":"0.0000000000000","REF_FRAME":"TEME","OBJECT_NAME":"STARLINK-3642","PERIAPSIS":"537.883","MEAN_MOTION":"15.08837966","BSTAR":"0.00010328000000","OBJECT_ID":"2022-025AK","MEAN_ANOMALY":"332.9459","ARG_OF_PERICENTER":"27.1674","SEMIMAJOR_AXIS":"6917.887","TLE_LINE2":"2 51989  53.2175 341.1690 0002701  27.1674 332.9459 15.08837966 41416","RA_OF_ASC_NODE":"341.1690","CLASSIFICATION_TYPE":"U","CENTER_NAME":"EARTH","NORAD_CAT_ID":"51989","MEAN_MOTION_DOT":"0.00001356","MEAN_ELEMENT_THEORY":"SGP4","ECCENTRICITY":"0.00027010","TLE_LINE1":"1 51989U 22025AK  22339.70810434  .00001356  00000-0  10328-3 0  9991","REV_AT_EPOCH":"4141","COUNTRY_CODE":"US","EPOCH":"2022-12-05T16:59:40.214976","APOAPSIS":"541.620","INCLINATION":"53.2175","EPHEMERIS_TYPE":"0","DECAY_DATE":null,"ELEMENT_SET_NO":"999","SITE":"AFETR","TIME_SYSTEM":"UTC","FILE":"3682465","RCS_SIZE":"LARGE","LAUNCH_DATE":"2022-03-09","GP_ID":"219627849","OBJECT_TYPE":"PAYLOAD"},{"RCS_SIZE":"LARGE","LAUNCH_DATE":"2022-03-09","GP_ID":"219628098","OBJECT_TYPE":"PAYLOAD","SITE":"AFETR","ELEMENT_SET_NO":"999","TIME_SYSTEM":"UTC","FILE":"3682465","APOAPSIS":"541.241","EPHEMERIS_TYPE":"0","INCLINATION":"53.2193","DECAY_DATE":null,"TLE_LINE1":"1 51990U 22025AL  22339.67682312  .00001526  00000-0  11400-3 0  9992","COUNTRY_CODE":"US","REV_AT_EPOCH":"4168","EPOCH":"2022-12-05T16:14:37.517568","NORAD_CAT_ID":"51990","MEAN_ELEMENT_THEORY":"SGP4","MEAN_MOTION_DOT":"0.00001526","ECCENTRICITY":"0.00021540","TLE_LINE2":"2 51990  53.2193 321.2951 0002154  41.5049 318.6107 15.08838158 41689","RA_OF_ASC_NODE":"321.2951","CLASSIFICATION_TYPE":"U","CENTER_NAME":"EARTH","MEAN_ANOMALY":"318.6107","ARG_OF_PERICENTER":"41.5049","SEMIMAJOR_AXIS":"6917.886","PERIOD":"95.438","REF_FRAME":"TEME","MEAN_MOTION_DDOT":"0.0000000000000","OBJECT_NAME":"STARLINK-3657","PERIAPSIS":"538.261","MEAN_MOTION":"15.08838158","BSTAR":"0.00011400000000","OBJECT_ID":"2022-025AL"},{"TIME_SYSTEM":"UTC","ELEMENT_SET_NO":"999","SITE":"AFETR","FILE":"3682155","LAUNCH_DATE":"2022-03-09","RCS_SIZE":"LARGE","OBJECT_TYPE":"PAYLOAD","GP_ID":"219598556","REV_AT_EPOCH":"4250","TLE_LINE1":"1 51991U 22025AM  22339.70074182  .00001315  00000-0  10074-3 0  9999","COUNTRY_CODE":"US","EPOCH":"2022-12-05T16:49:04.093248","APOAPSIS":"541.503","DECAY_DATE":null,"EPHEMERIS_TYPE":"0","INCLINATION":"53.2178","RA_OF_ASC_NODE":"341.2038","TLE_LINE2":"2 51991  53.2178 341.2038 0002542  28.5434 331.5697 15.08840393 42509","CENTER_NAME":"EARTH","CLASSIFICATION_TYPE":"U","MEAN_ELEMENT_THEORY":"SGP4","MEAN_MOTION_DOT":"0.00001315","NORAD_CAT_ID":"51991","ECCENTRICITY":"0.00025420","OBJECT_NAME":"STARLINK-3652","PERIAPSIS":"537.986","MEAN_MOTION_DDOT":"0.0000000000000","REF_FRAME":"TEME","PERIOD":"95.438","OBJECT_ID":"2022-025AM","BSTAR":"0.00010074000000","MEAN_MOTION":"15.08840393","ARG_OF_PERICENTER":"28.5434","MEAN_ANOMALY":"331.5697","SEMIMAJOR_AXIS":"6917.879"},{"EPOCH":"2022-12-05T09:37:10.927488","TLE_LINE1":"1 51992U 22025AN  22339.40082092  .00001425  00000-0  10764-3 0  9994","REV_AT_EPOCH":"4121","COUNTRY_CODE":"US","EPHEMERIS_TYPE":"0","INCLINATION":"53.2201","DECAY_DATE":null,"APOAPSIS":"541.646","FILE":"3682099","TIME_SYSTEM":"UTC","ELEMENT_SET_NO":"999","SITE":"AFETR","OBJECT_TYPE":"PAYLOAD","GP_ID":"219596735","RCS_SIZE":"LARGE","LAUNCH_DATE":"2022-03-09","OBJECT_ID":"2022-025AN","MEAN_MOTION":"15.08843310","BSTAR":"0.00010764000000","REF_FRAME":"TEME","MEAN_MOTION_DDOT":"0.0000000000000","PERIAPSIS":"537.825","OBJECT_NAME":"STARLINK-3643","PERIOD":"95.437","SEMIMAJOR_AXIS":"6917.870","ARG_OF_PERICENTER":"29.6684","MEAN_ANOMALY":"330.4464","CLASSIFICATION_TYPE":"U","CENTER_NAME":"EARTH","TLE_LINE2":"2 51992  53.2201 322.5481 0002762  29.6684 330.4464 15.08843310 41213","RA_OF_ASC_NODE":"322.5481","ECCENTRICITY":"0.00027620","MEAN_ELEMENT_THEORY":"SGP4","MEAN_MOTION_DOT":"0.00001425","NORAD_CAT_ID":"51992"},{"APOAPSIS":"541.443","DECAY_DATE":null,"EPHEMERIS_TYPE":"0","INCLINATION":"53.2179","REV_AT_EPOCH":"4249","TLE_LINE1":"1 51993U 22025AP  22339.49098259  .00000653  00000-0  59114-4 0  9991","COUNTRY_CODE":"US","EPOCH":"2022-12-05T11:47:00.895776","LAUNCH_DATE":"2022-03-09","RCS_SIZE":"LARGE","OBJECT_TYPE":"PAYLOAD","GP_ID":"219598575","TIME_SYSTEM":"UTC","ELEMENT_SET_NO":"999","SITE":"AFETR","FILE":"3682156","ARG_OF_PERICENTER":"39.8521","MEAN_ANOMALY":"320.2651","SEMIMAJOR_AXIS":"6917.877","OBJECT_NAME":"STARLINK-3648","PERIAPSIS":"538.041","REF_FRAME":"TEME","MEAN_MOTION_DDOT":"0.0000000000000","PERIOD":"95.437","OBJECT_ID":"2022-025AP","BSTAR":"0.00005911400000","MEAN_MOTION":"15.08841217","MEAN_MOTION_DOT":"0.00000653","MEAN_ELEMENT_THEORY":"SGP4","NORAD_CAT_ID":"51993","ECCENTRICITY":"0.00024590","RA_OF_ASC_NODE":"342.1373","TLE_LINE2":"2 51993  53.2179 342.1373 0002459  39.8521 320.2651 15.08841217 42492","CENTER_NAME":"EARTH","CLASSIFICATION_TYPE":"U"},{"MEAN_ELEMENT_THEORY":"SGP4","MEAN_MOTION_DOT":"0.00000699","NORAD_CAT_ID":"51994","ECCENTRICITY":"0.00022880","TLE_LINE2":"2 51994  53.2186 322.8628 0002288  37.9001 322.2152 15.08835250 41218","RA_OF_ASC_NODE":"322.8628","CLASSIFICATION_TYPE":"U","CENTER_NAME":"EARTH","ARG_OF_PERICENTER":"37.9001","MEAN_ANOMALY":"322.2152","SEMIMAJOR_AXIS":"6917.895","MEAN_MOTION_DDOT":"0.0000000000000","REF_FRAME":"TEME","OBJECT_NAME":"STARLINK-3647","PERIAPSIS":"538.177","PERIOD":"95.438","OBJECT_ID":"2022-025AQ","MEAN_MOTION":"15.08835250","BSTAR":"0.00006205500000","RCS_SIZE":"LARGE","LAUNCH_DATE":"2022-03-09","OBJECT_TYPE":"PAYLOAD","GP_ID":"219597230","TIME_SYSTEM":"UTC","SITE":"AFETR","ELEMENT_SET_NO":"999","FILE":"3682099","APOAPSIS":"541.343","EPHEMERIS_TYPE":"0","INCLINATION":"53.2186","DECAY_DATE":null,"TLE_LINE1":"1 51994U 22025AQ  22339.33090705  .00000699  00000-0  62055-4 0  9991","REV_AT_EPOCH":"4121","COUNTRY_CODE":"US","EPOCH":"2022-12-05T07:56:30.369120"},{"DECAY_DATE":null,"EPHEMERIS_TYPE":"0","INCLINATION":"53.2184","APOAPSIS":"541.334","EPOCH":"2022-12-05T16:09:19.785024","TLE_LINE1":"1 51995U 22025AR  22339.67314566  .00001733  00000-0  12698-3 0  9990","REV_AT_EPOCH":"4125","COUNTRY_CODE":"US","OBJECT_TYPE":"PAYLOAD","GP_ID":"219627352","LAUNCH_DATE":"2022-03-09","RCS_SIZE":"LARGE","FILE":"3682465","TIME_SYSTEM":"UTC","SITE":"AFETR","ELEMENT_SET_NO":"999","SEMIMAJOR_AXIS":"6917.870","ARG_OF_PERICENTER":"36.1437","MEAN_ANOMALY":"323.9711","OBJECT_ID":"2022-025AR","BSTAR":"0.00012698000000","MEAN_MOTION":"15.08843493","PERIAPSIS":"538.135","OBJECT_NAME":"STARLINK-3636","REF_FRAME":"TEME","MEAN_MOTION_DDOT":"0.0000000000000","PERIOD":"95.437","ECCENTRICITY":"0.00023120","MEAN_ELEMENT_THEORY":"SGP4","MEAN_MOTION_DOT":"0.00001733","NORAD_CAT_ID":"51995","CENTER_NAME":"EARTH","CLASSIFICATION_TYPE":"U","RA_OF_ASC_NODE":"321.3115","TLE_LINE2":"2 51995  53.2184 321.3115 0002312  36.1437 323.9711 15.08843493 41255"},{"TLE_LINE1":"1 51996U 22025AS  22339.39346823  .00000052  00000-0  21374-4 0  9996","COUNTRY_CODE":"US","REV_AT_EPOCH":"4122","EPOCH":"2022-12-05T09:26:35.655072","APOAPSIS":"541.271","EPHEMERIS_TYPE":"0","INCLINATION":"53.2192","DECAY_DATE":null,"TIME_SYSTEM":"UTC","SITE":"AFETR","ELEMENT_SET_NO":"999","FILE":"3682099","RCS_SIZE":"LARGE","LAUNCH_DATE":"2022-03-09","OBJECT_TYPE":"PAYLOAD","GP_ID":"219596236","REF_FRAME":"TEME","MEAN_MOTION_DDOT":"0.0000000000000","OBJECT_NAME":"STARLINK-3538","PERIAPSIS":"538.241","PERIOD":"95.438","OBJECT_ID":"2022-025AS","MEAN_MOTION":"15.08836550","BSTAR":"0.00002137400000","ARG_OF_PERICENTER":"42.3090","MEAN_ANOMALY":"317.8070","SEMIMAJOR_AXIS":"6917.891","TLE_LINE2":"2 51996  53.2192 322.5810 0002190  42.3090 317.8070 15.08836550 41221","RA_OF_ASC_NODE":"322.5810","CLASSIFICATION_TYPE":"U","CENTER_NAME":"EARTH","MEAN_MOTION_DOT":"0.00000052","MEAN_ELEMENT_THEORY":"SGP4","NORAD_CAT_ID":"51996","ECCENTRICITY":"0.00021900"},{"TLE_LINE1":"1 51997U 22025AT  22339.47074711  .00001446  00000-0  10896-3 0  9994","COUNTRY_CODE":"US","REV_AT_EPOCH":"4122","EPOCH":"2022-12-05T11:17:52.550304","APOAPSIS":"541.324","INCLINATION":"53.2179","EPHEMERIS_TYPE":"0","DECAY_DATE":null,"SITE":"AFETR","ELEMENT_SET_NO":"999","TIME_SYSTEM":"UTC","FILE":"3682099","RCS_SIZE":"LARGE","LAUNCH_DATE":"2022-03-09","GP_ID":"219597487","OBJECT_TYPE":"PAYLOAD","PERIOD":"95.438","REF_FRAME":"TEME","MEAN_MOTION_DDOT":"0.0000000000000","PERIAPSIS":"538.190","OBJECT_NAME":"STARLINK-3589","MEAN_MOTION":"15.08836174","BSTAR":"0.00010896000000","OBJECT_ID":"2022-025AT","MEAN_ANOMALY":"322.1194","ARG_OF_PERICENTER":"37.9957","SEMIMAJOR_AXIS":"6917.892","TLE_LINE2":"2 51997  53.2179 322.2192 0002265  37.9957 322.1194 15.08836174 41220","RA_OF_ASC_NODE":"322.2192","CLASSIFICATION_TYPE":"U","CENTER_NAME":"EARTH","NORAD_CAT_ID":"51997","MEAN_MOTION_DOT":"0.00001446","MEAN_ELEMENT_THEORY":"SGP4","ECCENTRICITY":"0.00022650"},{"RCS_SIZE":"MEDIUM","LAUNCH_DATE":"2022-03-09","OBJECT_TYPE":"PAYLOAD","GP_ID":"219598977","TIME_SYSTEM":"UTC","ELEMENT_SET_NO":"999","SITE":"AFETR","FILE":"3682169","APOAPSIS":"541.324","INCLINATION":"53.2193","EPHEMERIS_TYPE":"0","DECAY_DATE":null,"REV_AT_EPOCH":"4278","TLE_LINE1":"1 51998U 22025AU  22339.69522562  .00001118  00000-0  88319-4 0  9993","COUNTRY_CODE":"US","EPOCH":"2022-12-05T16:41:07.493568","MEAN_ELEMENT_THEORY":"SGP4","MEAN_MOTION_DOT":"0.00001118","NORAD_CAT_ID":"51998","ECCENTRICITY":"0.00023090","TLE_LINE2":"2 51998  53.2193 321.2177 0002309  42.9574 317.1599 15.08846215 42781","RA_OF_ASC_NODE":"321.2177","CLASSIFICATION_TYPE":"U","CENTER_NAME":"EARTH","ARG_OF_PERICENTER":"42.9574","MEAN_ANOMALY":"317.1599","SEMIMAJOR_AXIS":"6917.861","REF_FRAME":"TEME","MEAN_MOTION_DDOT":"0.0000000000000","PERIAPSIS":"538.129","OBJECT_NAME":"STARLINK-3618","PERIOD":"95.437","OBJECT_ID":"2022-025AU","MEAN_MOTION":"15.08846215","BSTAR":"0.00008831900000"}];
